{
  "type": "FeatureCollection",
  "features": [
    {
      "type": "Feature",
      "properties": {
        "norad_id": 36045,
        "name": "COSMOS 2251 DEB",
        "group": "cosmos-2251-debris",
        "lat": 30.896288179850384,
        "lon": -114.2035774723643,
        "alt_km": 640.7084882455265,
        "timestamp": "2025-12-04T05:42:43.769076+00:00",
        "meta_object_name": "COSMOS 2251 DEB",
        "meta_object_id": "1993-036AXG",
        "meta_epoch": "2025-12-01T23:07:36.106176",
        "meta_mean_motion": 14.69377741,
        "meta_eccentricity": 0.00488719,
        "meta_inclination": 73.7639,
        "meta_ra_of_asc_node": 80.3157,
        "meta_arg_of_pericenter": 97.908,
        "meta_mean_anomaly": 262.764,
        "meta_ephemeris_type": 0,
        "meta_classification_type": "U",
        "meta_norad_cat_id": 36045,
        "meta_element_set_no": 999,
        "meta_rev_at_epoch": 8230,
        "meta_bstar": 0.0029815468,
        "meta_mean_motion_dot": 0.0001797,
        "meta_mean_motion_ddot": 0,
        "tle_line1": "1 36045U 93036AXG 25335.96361234  .00017970  00000+0  29815-2 0  9991",
        "tle_line2": "2 36045  73.7639  80.3157 0048871  97.9080 262.7640 14.69377741 82309"
      },
      "geometry": {
        "type": "Point",
        "coordinates": [
          -114.2035774723643,
          30.896288179850384
        ]
      }
    },
    {
      "type": "Feature",
      "properties": {
        "norad_id": 36046,
        "name": "COSMOS 2251 DEB",
        "group": "cosmos-2251-debris",
        "lat": -15.283228120097109,
        "lon": -71.61153363665879,
        "alt_km": 685.6186772972651,
        "timestamp": "2025-12-04T05:42:43.769086+00:00",
        "meta_object_name": "COSMOS 2251 DEB",
        "meta_object_id": "1993-036AXH",
        "meta_epoch": "2025-12-01T14:24:58.053024",
        "meta_mean_motion": 14.65147038,
        "meta_eccentricity": 0.00552553,
        "meta_inclination": 74.0167,
        "meta_ra_of_asc_node": 297.9586,
        "meta_arg_of_pericenter": 87.1353,
        "meta_mean_anomaly": 32.6466,
        "meta_ephemeris_type": 0,
        "meta_classification_type": "U",
        "meta_norad_cat_id": 36046,
        "meta_element_set_no": 999,
        "meta_rev_at_epoch": 63840,
        "meta_bstar": 0.0006286755,
        "meta_mean_motion_dot": 3.426e-05,
        "meta_mean_motion_ddot": 0,
        "tle_line1": "1 36046U 93036AXH 25335.60067191  .00003426  00000+0  62868-3 0  9995",
        "tle_line2": "2 36046  74.0167 297.9586 0055255  87.1353  32.6466 14.65147038638408"
      },
      "geometry": {
        "type": "Point",
        "coordinates": [
          -71.61153363665879,
          -15.283228120097109
        ]
      }
    },
    {
      "type": "Feature",
      "properties": {
        "norad_id": 36047,
        "name": "COSMOS 2251 DEB",
        "group": "cosmos-2251-debris",
        "lat": 61.14197860665772,
        "lon": 22.620350840010563,
        "alt_km": 571.2511351726062,
        "timestamp": "2025-12-04T05:42:43.769096+00:00",
        "meta_object_name": "COSMOS 2251 DEB",
        "meta_object_id": "1993-036AXJ",
        "meta_epoch": "2025-12-03T18:10:50.756160",
        "meta_mean_motion": 14.95364522,
        "meta_eccentricity": 0.00078423,
        "meta_inclination": 74.0348,
        "meta_ra_of_asc_node": 352.2907,
        "meta_arg_of_pericenter": 18.0542,
        "meta_mean_anomaly": 342.0919,
        "meta_ephemeris_type": 0,
        "meta_classification_type": "U",
        "meta_norad_cat_id": 36047,
        "meta_element_set_no": 999,
        "meta_rev_at_epoch": 65805,
        "meta_bstar": 0.0029851567,
        "meta_mean_motion_dot": 0.00033093,
        "meta_mean_motion_ddot": 0,
        "tle_line1": "1 36047U 93036AXJ 25337.75753190  .00033093  00000+0  29852-2 0  9993",
        "tle_line2": "2 36047  74.0348 352.2907 0007842  18.0542 342.0919 14.95364522658050"
      },
      "geometry": {
        "type": "Point",
        "coordinates": [
          22.620350840010563,
          61.14197860665772
        ]
      }
    },
    {
      "type": "Feature",
      "properties": {
        "norad_id": 36048,
        "name": "COSMOS 2251 DEB",
        "group": "cosmos-2251-debris",
        "lat": -35.405034662055414,
        "lon": -56.80372642824851,
        "alt_km": 758.0522908113944,
        "timestamp": "2025-12-04T05:42:43.769106+00:00",
        "meta_object_name": "COSMOS 2251 DEB",
        "meta_object_id": "1993-036AXK",
        "meta_epoch": "2025-12-03T17:20:47.779872",
        "meta_mean_motion": 14.37824674,
        "meta_eccentricity": 0.00262269,
        "meta_inclination": 74.0561,
        "meta_ra_of_asc_node": 315.8673,
        "meta_arg_of_pericenter": 7.889,
        "meta_mean_anomaly": 169.513,
        "meta_ephemeris_type": 0,
        "meta_classification_type": "U",
        "meta_norad_cat_id": 36048,
        "meta_element_set_no": 999,
        "meta_rev_at_epoch": 85372,
        "meta_bstar": 0.00041796322,
        "meta_mean_motion_dot": 1.239e-05,
        "meta_mean_motion_ddot": 0,
        "tle_line1": "1 36048U 93036AXK 25337.72277523  .00001239  00000+0  41796-3 0  9991",
        "tle_line2": "2 36048  74.0561 315.8673 0026226   7.8890 169.5130 14.37824674853725"
      },
      "geometry": {
        "type": "Point",
        "coordinates": [
          -56.80372642824851,
          -35.405034662055414
        ]
      }
    },
    {
      "type": "Feature",
      "properties": {
        "norad_id": 36049,
        "name": "COSMOS 2251 DEB",
        "group": "cosmos-2251-debris",
        "lat": 46.36790737479124,
        "lon": 152.9454305776836,
        "alt_km": 690.4597805682897,
        "timestamp": "2025-12-04T05:42:43.769116+00:00",
        "meta_object_name": "COSMOS 2251 DEB",
        "meta_object_id": "1993-036AXL",
        "meta_epoch": "2025-12-02T10:47:16.230624",
        "meta_mean_motion": 14.61903141,
        "meta_eccentricity": 0.00113733,
        "meta_inclination": 74.0292,
        "meta_ra_of_asc_node": 138.8873,
        "meta_arg_of_pericenter": 223.356,
        "meta_mean_anomaly": 136.6713,
        "meta_ephemeris_type": 0,
        "meta_classification_type": "U",
        "meta_norad_cat_id": 36049,
        "meta_element_set_no": 999,
        "meta_rev_at_epoch": 85214,
        "meta_bstar": 0.0017572589,
        "meta_mean_motion_dot": 8.782e-05,
        "meta_mean_motion_ddot": 0,
        "tle_line1": "1 36049U 93036AXL 25336.44949341  .00008782  00000+0  17573-2 0  9999",
        "tle_line2": "2 36049  74.0292 138.8873 0011373 223.3560 136.6713 14.61903141852149"
      },
      "geometry": {
        "type": "Point",
        "coordinates": [
          152.9454305776836,
          46.36790737479124
        ]
      }
    },
    {
      "type": "Feature",
      "properties": {
        "norad_id": 36050,
        "name": "COSMOS 2251 DEB",
        "group": "cosmos-2251-debris",
        "lat": 11.44780235876599,
        "lon": -145.34031630619324,
        "alt_km": 553.161966527101,
        "timestamp": "2025-12-04T05:42:43.769148+00:00",
        "meta_object_name": "COSMOS 2251 DEB",
        "meta_object_id": "1993-036AXM",
        "meta_epoch": "2025-12-03T08:51:43.557696",
        "meta_mean_motion": 15.00813844,
        "meta_eccentricity": 0.00890805,
        "meta_inclination": 74.0318,
        "meta_ra_of_asc_node": 213.1033,
        "meta_arg_of_pericenter": 294.9563,
        "meta_mean_anomaly": 64.2389,
        "meta_ephemeris_type": 0,
        "meta_classification_type": "U",
        "meta_norad_cat_id": 36050,
        "meta_element_set_no": 999,
        "meta_rev_at_epoch": 66894,
        "meta_bstar": 0.00068060745,
        "meta_mean_motion_dot": 9.378e-05,
        "meta_mean_motion_ddot": 0,
        "tle_line1": "1 36050U 93036AXM 25337.36925414  .00009378  00000+0  68061-3 0  9999",
        "tle_line2": "2 36050  74.0318 213.1033 0089080 294.9563  64.2389 15.00813844668944"
      },
      "geometry": {
        "type": "Point",
        "coordinates": [
          -145.34031630619324,
          11.44780235876599
        ]
      }
    },
    {
      "type": "Feature",
      "properties": {
        "norad_id": 36053,
        "name": "COSMOS 2251 DEB",
        "group": "cosmos-2251-debris",
        "lat": 0.8802404522302977,
        "lon": -11.256351776798933,
        "alt_km": 692.8333867178962,
        "timestamp": "2025-12-04T05:42:43.769159+00:00",
        "meta_object_name": "COSMOS 2251 DEB",
        "meta_object_id": "1993-036AXQ",
        "meta_epoch": "2025-12-01T06:02:04.873920",
        "meta_mean_motion": 14.56926822,
        "meta_eccentricity": 0.0033176,
        "meta_inclination": 73.8721,
        "meta_ra_of_asc_node": 174.7239,
        "meta_arg_of_pericenter": 127.7081,
        "meta_mean_anomaly": 232.7098,
        "meta_ephemeris_type": 0,
        "meta_classification_type": "U",
        "meta_norad_cat_id": 36053,
        "meta_element_set_no": 999,
        "meta_rev_at_epoch": 87277,
        "meta_bstar": 0.0017117,
        "meta_mean_motion_dot": 7.72e-05,
        "meta_mean_motion_ddot": 0,
        "tle_line1": "1 36053U 93036AXQ 25335.25144530  .00007720  00000+0  17117-2 0  9994",
        "tle_line2": "2 36053  73.8721 174.7239 0033176 127.7081 232.7098 14.56926822872773"
      },
      "geometry": {
        "type": "Point",
        "coordinates": [
          -11.256351776798933,
          0.8802404522302977
        ]
      }
    }
  ]
}